TAF NZWN 171704Z 1718/1900 36008KT 9999 BKN030
 FM172200 14010KT 9999 BKN020
 TEMPO 1800/1804 6000 SHRA
 BECMG 1802/1804 03008KT
 TEMPO 1804/1814 5000 SHRA FEW020TCU
 PROB30 TEMPO 1805/1810 3000 TSRA FEW020CB
 BECMG 1822/1900 36015G25KT
 2000FT WIND 01015KT
 BECMG 1721/1723 09010KT
 BECMG 1803/1805 03025KT
 BECMG 1812/1814 33020KT
 QNH 1718/1808 MNM 997 MAX 1006
 QNH 1808/1900 MNM 995 MAX 1004