TAF COR NZPP 171025Z 1711/1805 02005KT 25KM BKN080
 TEMPO 1711/1712 5000 SHRA
 BECMG 1722/1800 20010KT
 FM180200 VRB02KT 20KM -SHRA BKN040
 TEMPO 1802/1805 5000 SHRA FEW020TCU
 PROB30 TEMPO 1803/1805 2500 TSRA FEW020CB
 2000FT WIND 01010KT
 BECMG 1802/1804 04020KT
 QNH MNM 1001 MAX 1010